[{"OBJECT_NAME":"GEISAT PRECURSOR","OBJECT_ID":"2023-084C","EPOCH":"2026-03-09T22:20:25.833120","MEAN_MOTION":15.33054389,"ECCENTRICITY":0.00051675,"INCLINATION":97.6055,"RA_OF_ASC_NODE":206.8263,"ARG_OF_PERICENTER":345.1842,"MEAN_ANOMALY":14.9247,"EPHEMERIS_TYPE":0,"CLASSIFICATION_TYPE":"U","NORAD_CAT_ID":56934,"ELEMENT_SET_NO":999,"REV_AT_EPOCH":15231,"BSTAR":0.00033857167,"MEAN_MOTION_DOT":0.00010736,"MEAN_MOTION_DDOT":0},{"OBJECT_NAME":"STARLINK-32048","OBJECT_ID":"2024-120X","EPOCH":"2026-03-09T22:29:53.329920","MEAN_MOTION":15.30198059,"ECCENTRICITY":0.00010207,"INCLINATION":53.1612,"RA_OF_ASC_NODE":318.809,"ARG_OF_PERICENTER":102.9605,"MEAN_ANOMALY":257.151,"EPHEMERIS_TYPE":0,"CLASSIFICATION_TYPE":"U","NORAD_CAT_ID":60156,"ELEMENT_SET_NO":999,"REV_AT_EPOCH":9641,"BSTAR":6.1185231e-5,"MEAN_MOTION_DOT":1.453e-5,"MEAN_MOTION_DDOT":0}]
